STARLINK-1975_new
1 17573C 21009AB  21326.09981626  .00007838  00000-0  52501-3 0  3269
2 17573  53.0514 213.2818 0001919  68.5008  82.9035 15.06398112    12
STARLINK-1975_old
1 27573C 21009AB  21325.16422397  .00009132  00000-0  61186-3 0  3258
2 27573  53.0520 217.4818 0001867  66.9183  47.9227 15.06389919    12
